[{"OBJECT_NAME":"FENGYUN 1C DEB","OBJECT_ID":"1999-025ACA","EPOCH":"2026-03-05T03:29:03.182208","MEAN_MOTION":14.17443678,"ECCENTRICITY":0.00820893,"INCLINATION":99.0213,"RA_OF_ASC_NODE":141.5403,"ARG_OF_PERICENTER":163.8312,"MEAN_ANOMALY":196.5511,"EPHEMERIS_TYPE":0,"CLASSIFICATION_TYPE":"U","NORAD_CAT_ID":30363,"ELEMENT_SET_NO":999,"REV_AT_EPOCH":97991,"BSTAR":0.0016995567,"MEAN_MOTION_DOT":3.516e-5,"MEAN_MOTION_DDOT":0},{"OBJECT_NAME":"FENGYUN 1C DEB","OBJECT_ID":"1999-025ACB","EPOCH":"2026-03-05T06:01:17.647680","MEAN_MOTION":14.18450121,"ECCENTRICITY":0.03279239,"INCLINATION":98.1378,"RA_OF_ASC_NODE":338.8938,"ARG_OF_PERICENTER":78.6858,"MEAN_ANOMALY":71.114,"EPHEMERIS_TYPE":0,"CLASSIFICATION_TYPE":"U","NORAD_CAT_ID":30364,"ELEMENT_SET_NO":999,"REV_AT_EPOCH":96810,"BSTAR":0.0024251295,"MEAN_MOTION_DOT":8.525e-5,"MEAN_MOTION_DDOT":0},{"OBJECT_NAME":"FENGYUN 1C DEB","OBJECT_ID":"1999-025ACC","EPOCH":"2026-03-04T11:55:38.555328","MEAN_MOTION":14.19362445,"ECCENTRICITY":0.01658185,"INCLINATION":98.626,"RA_OF_ASC_NODE":60.7278,"ARG_OF_PERICENTER":235.363,"MEAN_ANOMALY":278.9569,"EPHEMERIS_TYPE":0,"CLASSIFICATION_TYPE":"U","NORAD_CAT_ID":30365,"ELEMENT_SET_NO":999,"REV_AT_EPOCH":98772,"BSTAR":0.00027377248,"MEAN_MOTION_DOT":6.15e-6,"MEAN_MOTION_DDOT":0},{"OBJECT_NAME":"FENGYUN 1C DEB","OBJECT_ID":"1999-025ACD","EPOCH":"2026-03-05T06:25:30.342720","MEAN_MOTION":14.33775481,"ECCENTRICITY":0.00628571,"INCLINATION":98.9256,"RA_OF_ASC_NODE":349.3213,"ARG_OF_PERICENTER":339.2333,"MEAN_ANOMALY":172.8511,"EPHEMERIS_TYPE":0,"CLASSIFICATION_TYPE":"U","NORAD_CAT_ID":30366,"ELEMENT_SET_NO":999,"REV_AT_EPOCH":99505,"BSTAR":0.00079362992,"MEAN_MOTION_DOT":2.208e-5,"MEAN_MOTION_DDOT":0},{"OBJECT_NAME":"FENGYUN 1C DEB","OBJECT_ID":"1999-025ACF","EPOCH":"2026-03-05T06:14:48.261984","MEAN_MOTION":13.75435772,"ECCENTRICITY":0.01880729,"INCLINATION":99.186,"RA_OF_ASC_NODE":172.2272,"ARG_OF_PERICENTER":90.5718,"MEAN_ANOMALY":300.0539,"EPHEMERIS_TYPE":0,"CLASSIFICATION_TYPE":"U","NORAD_CAT_ID":30368,"ELEMENT_SET_NO":999,"REV_AT_EPOCH":95796,"BSTAR":0.00034926048,"MEAN_MOTION_DOT":3.41e-6,"MEAN_MOTION_DDOT":0},{"OBJECT_NAME":"FENGYUN 1C DEB","OBJECT_ID":"1999-025ACG","EPOCH":"2026-03-05T06:22:04.773792","MEAN_MOTION":14.12141189,"ECCENTRICITY":0.00987271,"INCLINATION":98.727,"RA_OF_ASC_NODE":64.4033,"ARG_OF_PERICENTER":321.9506,"MEAN_ANOMALY":53.4229,"EPHEMERIS_TYPE":0,"CLASSIFICATION_TYPE":"U","NORAD_CAT_ID":30369,"ELEMENT_SET_NO":999,"REV_AT_EPOCH":98411,"BSTAR":0.0003229668,"MEAN_MOTION_DOT":5.77e-6,"MEAN_MOTION_DDOT":0},{"OBJECT_NAME":"FENGYUN 1C DEB","OBJECT_ID":"1999-025ACH","EPOCH":"2026-03-05T03:29:01.597632","MEAN_MOTION":14.19612959,"ECCENTRICITY":0.01004854,"INCLINATION":99.0453,"RA_OF_ASC_NODE":126.8959,"ARG_OF_PERICENTER":83.5663,"MEAN_ANOMALY":331.9335,"EPHEMERIS_TYPE":0,"CLASSIFICATION_TYPE":"U","NORAD_CAT_ID":30370,"ELEMENT_SET_NO":999,"REV_AT_EPOCH":98263,"BSTAR":0.0010020538,"MEAN_MOTION_DOT":2.18e-5,"MEAN_MOTION_DDOT":0},{"OBJECT_NAME":"FENGYUN 1C DEB","OBJECT_ID":"1999-025ACJ","EPOCH":"2026-03-05T03:16:19.645536","MEAN_MOTION":14.30682508,"ECCENTRICITY":0.00087618,"INCLINATION":98.5657,"RA_OF_ASC_NODE":110.9421,"ARG_OF_PERICENTER":97.9414,"MEAN_ANOMALY":325.9689,"EPHEMERIS_TYPE":0,"CLASSIFICATION_TYPE":"U","NORAD_CAT_ID":30371,"ELEMENT_SET_NO":999,"REV_AT_EPOCH":99081,"BSTAR":0.00097236096,"MEAN_MOTION_DOT":2.5e-5,"MEAN_MOTION_DDOT":0},{"OBJECT_NAME":"FENGYUN 1C DEB","OBJECT_ID":"1999-025ACM","EPOCH":"2026-03-05T04:49:16.115808","MEAN_MOTION":14.62778256,"ECCENTRICITY":0.00388208,"INCLINATION":99.2686,"RA_OF_ASC_NODE":302.7195,"ARG_OF_PERICENTER":280.5447,"MEAN_ANOMALY":201.9294,"EPHEMERIS_TYPE":0,"CLASSIFICATION_TYPE":"U","NORAD_CAT_ID":30374,"ELEMENT_SET_NO":999,"REV_AT_EPOCH":126,"BSTAR":0.0018898446,"MEAN_MOTION_DOT":9.696e-5,"MEAN_MOTION_DDOT":0},{"OBJECT_NAME":"FENGYUN 1C DEB","OBJECT_ID":"1999-025ACQ","EPOCH":"2026-03-05T08:14:22.271712","MEAN_MOTION":13.9927653,"ECCENTRICITY":0.01193565,"INCLINATION":98.8887,"RA_OF_ASC_NODE":86.436,"ARG_OF_PERICENTER":38.9937,"MEAN_ANOMALY":337.8642,"EPHEMERIS_TYPE":0,"CLASSIFICATION_TYPE":"U","NORAD_CAT_ID":30377,"ELEMENT_SET_NO":999,"REV_AT_EPOCH":97362,"BSTAR":0.00066972721,"MEAN_MOTION_DOT":9.92e-6,"MEAN_MOTION_DDOT":0},{"OBJECT_NAME":"FENGYUN 1C DEB","OBJECT_ID":"1999-025ACS","EPOCH":"2026-03-05T00:23:41.264448","MEAN_MOTION":14.08131106,"ECCENTRICITY":0.00371235,"INCLINATION":98.7556,"RA_OF_ASC_NODE":81.3085,"ARG_OF_PERICENTER":48.3544,"MEAN_ANOMALY":339.5467,"EPHEMERIS_TYPE":0,"CLASSIFICATION_TYPE":"U","NORAD_CAT_ID":30379,"ELEMENT_SET_NO":999,"REV_AT_EPOCH":97975,"BSTAR":0.00027458674,"MEAN_MOTION_DOT":4.28e-6,"MEAN_MOTION_DDOT":0},{"OBJECT_NAME":"FENGYUN 1C DEB","OBJECT_ID":"1999-025ACT","EPOCH":"2026-03-05T03:14:05.234784","MEAN_MOTION":14.50912616,"ECCENTRICITY":0.0176486,"INCLINATION":98.8993,"RA_OF_ASC_NODE":121.5899,"ARG_OF_PERICENTER":329.7149,"MEAN_ANOMALY":29.3936,"EPHEMERIS_TYPE":0,"CLASSIFICATION_TYPE":"U","NORAD_CAT_ID":30380,"ELEMENT_SET_NO":999,"REV_AT_EPOCH":759,"BSTAR":0.00026986834,"MEAN_MOTION_DOT":1.241e-5,"MEAN_MOTION_DDOT":0},{"OBJECT_NAME":"FENGYUN 1C DEB","OBJECT_ID":"1999-025ACU","EPOCH":"2026-03-04T13:48:16.541280","MEAN_MOTION":14.13311354,"ECCENTRICITY":0.0054894,"INCLINATION":98.8045,"RA_OF_ASC_NODE":102.2866,"ARG_OF_PERICENTER":200.9758,"MEAN_ANOMALY":158.9162,"EPHEMERIS_TYPE":0,"CLASSIFICATION_TYPE":"U","NORAD_CAT_ID":30381,"ELEMENT_SET_NO":999,"REV_AT_EPOCH":93322,"BSTAR":0.0012313,"MEAN_MOTION_DOT":2.299e-5,"MEAN_MOTION_DDOT":0},{"OBJECT_NAME":"FENGYUN 1C DEB","OBJECT_ID":"1999-025ACV","EPOCH":"2026-03-05T08:16:29.437824","MEAN_MOTION":14.25730132,"ECCENTRICITY":0.01558846,"INCLINATION":98.4882,"RA_OF_ASC_NODE":105.1847,"ARG_OF_PERICENTER":115.1718,"MEAN_ANOMALY":261.1794,"EPHEMERIS_TYPE":0,"CLASSIFICATION_TYPE":"U","NORAD_CAT_ID":30382,"ELEMENT_SET_NO":999,"REV_AT_EPOCH":98712,"BSTAR":0.0010457668,"MEAN_MOTION_DOT":2.778e-5,"MEAN_MOTION_DDOT":0},{"OBJECT_NAME":"FENGYUN 1C DEB","OBJECT_ID":"1999-025ACY","EPOCH":"2026-03-05T01:45:54.656064","MEAN_MOTION":14.38961661,"ECCENTRICITY":0.01259411,"INCLINATION":99.0747,"RA_OF_ASC_NODE":94.5472,"ARG_OF_PERICENTER":47.8211,"MEAN_ANOMALY":330.4635,"EPHEMERIS_TYPE":0,"CLASSIFICATION_TYPE":"U","NORAD_CAT_ID":30385,"ELEMENT_SET_NO":999,"REV_AT_EPOCH":99953,"BSTAR":0.00034012277,"MEAN_MOTION_DOT":1.098e-5,"MEAN_MOTION_DDOT":0},{"OBJECT_NAME":"FENGYUN 1C DEB","OBJECT_ID":"1999-025ACZ","EPOCH":"2026-03-05T04:25:51.931776","MEAN_MOTION":13.55956362,"ECCENTRICITY":0.03056408,"INCLINATION":98.6874,"RA_OF_ASC_NODE":314.8413,"ARG_OF_PERICENTER":302.6202,"MEAN_ANOMALY":214.6992,"EPHEMERIS_TYPE":0,"CLASSIFICATION_TYPE":"U","NORAD_CAT_ID":30386,"ELEMENT_SET_NO":999,"REV_AT_EPOCH":93946,"BSTAR":0.0022677745,"MEAN_MOTION_DOT":2.103e-5,"MEAN_MOTION_DDOT":0}]
