FENGYUN 1C DEB          
1 30363U 99025ACA 26064.14517572  .00003516  00000+0  16996-2 0  9997
2 30363  99.0213 141.5403 0082089 163.8312 196.5511 14.17443678979918
FENGYUN 1C DEB          
1 30364U 99025ACB 26064.25089870  .00008525  00000+0  24251-2 0  9993
2 30364  98.1378 338.8938 0327923  78.6858  71.1140 14.18450121968109
FENGYUN 1C DEB          
1 30365U 99025ACC 26063.49697402  .00000615  00000+0  27377-3 0  9990
2 30365  98.6260  60.7278 0165818 235.3630 278.9569 14.19362445987729
FENGYUN 1C DEB          
1 30366U 99025ACD 26064.26771230  .00002208  00000+0  79363-3 0  9991
2 30366  98.9256 349.3213 0062857 339.2333 172.8511 14.33775481995054
FENGYUN 1C DEB          
1 30368U 99025ACF 26064.26028081  .00000341  00000+0  34926-3 0  9994
2 30368  99.1860 172.2272 0188072  90.5718 300.0539 13.75435772957964
FENGYUN 1C DEB          
1 30369U 99025ACG 26064.26533303  .00000577  00000+0  32297-3 0  9993
2 30369  98.7270  64.4033 0098727 321.9506  53.4229 14.12141189984115
FENGYUN 1C DEB          
1 30370U 99025ACH 26064.14515738  .00002180  00000+0  10021-2 0  9996
2 30370  99.0453 126.8959 0100485  83.5663 331.9335 14.19612959982636
FENGYUN 1C DEB          
1 30371U 99025ACJ 26064.13633849  .00002500  00000+0  97236-3 0  9990
2 30371  98.5657 110.9421 0008761  97.9414 325.9689 14.30682508990816
FENGYUN 1C DEB          
1 30374U 99025ACM 26064.20088097  .00009696  00000+0  18898-2 0  9999
2 30374  99.2686 302.7195 0038820 280.5447 201.9294 14.62778256  1261
FENGYUN 1C DEB          
1 30377U 99025ACQ 26064.34331333  .00000992  00000+0  66973-3 0  9999
2 30377  98.8887  86.4360 0119356  38.9937 337.8642 13.99276530973626
FENGYUN 1C DEB          
1 30379U 99025ACS 26064.01644982  .00000428  00000+0  27459-3 0  9992
2 30379  98.7556  81.3085 0037123  48.3544 339.5467 14.08131106979752
FENGYUN 1C DEB          
1 30380U 99025ACT 26064.13478281  .00001241  00000+0  26987-3 0  9993
2 30380  98.8993 121.5899 0176486 329.7149  29.3936 14.50912616  7592
FENGYUN 1C DEB          
1 30381U 99025ACU 26063.57519145  .00002299  00000+0  12313-2 0  9997
2 30381  98.8045 102.2866 0054894 200.9758 158.9162 14.13311354933224
FENGYUN 1C DEB          
1 30382U 99025ACV 26064.34478516  .00002778  00000+0  10458-2 0  9990
2 30382  98.4882 105.1847 0155884 115.1718 261.1794 14.25730132987123
FENGYUN 1C DEB          
1 30385U 99025ACY 26064.07354926  .00001098  00000+0  34012-3 0  9998
2 30385  99.0747  94.5472 0125941  47.8211 330.4635 14.38961661999537
FENGYUN 1C DEB          
1 30386U 99025ACZ 26064.18462884  .00002103  00000+0  22678-2 0  9996
2 30386  98.6874 314.8413 0305640 302.6202 214.6992 13.55956362939460
